{
  "type": "FeatureCollection",
  "features": [
    {
      "type": "Feature",
      "properties": {
        "norad_id": 29268,
        "name": "ARIRANG-2 (KOMPSAT-2)",
        "group": "resource",
        "lat": -77.50634564467809,
        "lon": -34.6278994761329,
        "alt_km": 677.1761353378561,
        "timestamp": "2025-12-21T16:47:54.385291+00:00",
        "meta_object_name": "ARIRANG-2 (KOMPSAT-2)",
        "meta_object_id": "2006-031A",
        "meta_epoch": "2025-12-21T12:42:51.219936",
        "meta_mean_motion": 14.6450088,
        "meta_eccentricity": 0.0013179,
        "meta_inclination": 97.8252,
        "meta_ra_of_asc_node": 183.5738,
        "meta_arg_of_pericenter": 278.865,
        "meta_mean_anomaly": 164.7333,
        "meta_ephemeris_type": 0,
        "meta_classification_type": "U",
        "meta_norad_cat_id": 29268,
        "meta_element_set_no": 999,
        "meta_rev_at_epoch": 3547,
        "meta_bstar": 5.9104e-05,
        "meta_mean_motion_dot": 2.68e-06,
        "meta_mean_motion_ddot": 0,
        "tle_line1": "1 29268U 06031A   25355.52975949  .00000268  00000+0  59104-4 0  9995",
        "tle_line2": "2 29268  97.8252 183.5738 0013179 278.8650 164.7333 14.64500880 35476"
      },
      "geometry": {
        "type": "Point",
        "coordinates": [
          -34.6278994761329,
          -77.50634564467809
        ]
      }
    },
    {
      "type": "Feature",
      "properties": {
        "norad_id": 29709,
        "name": "LAPAN-TUBSAT",
        "group": "resource",
        "lat": 22.222124873923878,
        "lon": 169.3866421640067,
        "alt_km": 614.3324021125054,
        "timestamp": "2025-12-21T16:47:54.385302+00:00",
        "meta_object_name": "LAPAN-TUBSAT",
        "meta_object_id": "2007-001A",
        "meta_epoch": "2025-12-21T12:51:37.695744",
        "meta_mean_motion": 14.85683403,
        "meta_eccentricity": 0.0013377,
        "meta_inclination": 98.1252,
        "meta_ra_of_asc_node": 345.8731,
        "meta_arg_of_pericenter": 48.2196,
        "meta_mean_anomaly": 312.0159,
        "meta_ephemeris_type": 0,
        "meta_classification_type": "U",
        "meta_norad_cat_id": 29709,
        "meta_element_set_no": 999,
        "meta_rev_at_epoch": 2477,
        "meta_bstar": 0.00010757,
        "meta_mean_motion_dot": 8.77e-06,
        "meta_mean_motion_ddot": 0,
        "tle_line1": "1 29709U 07001A   25355.53585296  .00000877  00000+0  10757-3 0  9992",
        "tle_line2": "2 29709  98.1252 345.8731 0013377  48.2196 312.0159 14.85683403 24771"
      },
      "geometry": {
        "type": "Point",
        "coordinates": [
          169.3866421640067,
          22.222124873923878
        ]
      }
    },
    {
      "type": "Feature",
      "properties": {
        "norad_id": 31113,
        "name": "HAIYANG-1B",
        "group": "resource",
        "lat": 77.33525997046765,
        "lon": -61.09709056990784,
        "alt_km": 777.4850459881309,
        "timestamp": "2025-12-21T16:47:54.385330+00:00",
        "meta_object_name": "HAIYANG-1B",
        "meta_object_id": "2007-010A",
        "meta_epoch": "2025-12-20T20:17:13.259040",
        "meta_mean_motion": 14.30967553,
        "meta_eccentricity": 0.0013866,
        "meta_inclination": 98.3321,
        "meta_ra_of_asc_node": 338.7888,
        "meta_arg_of_pericenter": 14.9776,
        "meta_mean_anomaly": 345.1816,
        "meta_ephemeris_type": 0,
        "meta_classification_type": "U",
        "meta_norad_cat_id": 31113,
        "meta_element_set_no": 999,
        "meta_rev_at_epoch": 97512,
        "meta_bstar": 4.2056e-05,
        "meta_mean_motion_dot": 6.9e-07,
        "meta_mean_motion_ddot": 0,
        "tle_line1": "1 31113U 07010A   25354.84529235  .00000069  00000+0  42056-4 0  9999",
        "tle_line2": "2 31113  98.3321 338.7888 0013866  14.9776 345.1816 14.30967553975125"
      },
      "geometry": {
        "type": "Point",
        "coordinates": [
          -61.09709056990784,
          77.33525997046765
        ]
      }
    },
    {
      "type": "Feature",
      "properties": {
        "norad_id": 31598,
        "name": "COSMO-SKYMED 1",
        "group": "resource",
        "lat": 76.63538557382854,
        "lon": 145.47894825827248,
        "alt_km": 571.5063196175151,
        "timestamp": "2025-12-21T16:47:54.385343+00:00",
        "meta_object_name": "COSMO-SKYMED 1",
        "meta_object_id": "2007-023A",
        "meta_epoch": "2025-12-21T11:37:46.227648",
        "meta_mean_motion": 14.95828906,
        "meta_eccentricity": 0.000153,
        "meta_inclination": 97.8838,
        "meta_ra_of_asc_node": 180.9413,
        "meta_arg_of_pericenter": 81.9726,
        "meta_mean_anomaly": 278.1668,
        "meta_ephemeris_type": 0,
        "meta_classification_type": "U",
        "meta_norad_cat_id": 31598,
        "meta_element_set_no": 999,
        "meta_rev_at_epoch": 321,
        "meta_bstar": 0.00026932,
        "meta_mean_motion_dot": 2.948e-05,
        "meta_mean_motion_ddot": 0,
        "tle_line1": "1 31598U 07023A   25355.48456282  .00002948  00000+0  26932-3 0  9994",
        "tle_line2": "2 31598  97.8838 180.9413 0001530  81.9726 278.1668 14.95828906  3215"
      },
      "geometry": {
        "type": "Point",
        "coordinates": [
          145.47894825827248,
          76.63538557382854
        ]
      }
    },
    {
      "type": "Feature",
      "properties": {
        "norad_id": 31698,
        "name": "TERRASAR-X",
        "group": "resource",
        "lat": 52.39986642365635,
        "lon": -169.2733868171277,
        "alt_km": 502.53771079474245,
        "timestamp": "2025-12-21T16:47:54.385354+00:00",
        "meta_object_name": "TERRASAR-X",
        "meta_object_id": "2007-026A",
        "meta_epoch": "2025-12-20T11:47:12.844032",
        "meta_mean_motion": 15.19153914,
        "meta_eccentricity": 0.0001874,
        "meta_inclination": 97.4453,
        "meta_ra_of_asc_node": 359.7585,
        "meta_arg_of_pericenter": 92.6145,
        "meta_mean_anomaly": 267.5304,
        "meta_ephemeris_type": 0,
        "meta_classification_type": "U",
        "meta_norad_cat_id": 31698,
        "meta_element_set_no": 999,
        "meta_rev_at_epoch": 2609,
        "meta_bstar": 3.1273e-05,
        "meta_mean_motion_dot": 5.9e-06,
        "meta_mean_motion_ddot": 0,
        "tle_line1": "1 31698U 07026A   25354.49112088  .00000590  00000+0  31273-4 0  9997",
        "tle_line2": "2 31698  97.4453 359.7585 0001874  92.6145 267.5304 15.19153914 26093"
      },
      "geometry": {
        "type": "Point",
        "coordinates": [
          -169.2733868171277,
          52.39986642365635
        ]
      }
    },
    {
      "type": "Feature",
      "properties": {
        "norad_id": 32060,
        "name": "WORLDVIEW-1 (WV-1)",
        "group": "resource",
        "lat": -57.027211426031805,
        "lon": 124.58143865079487,
        "alt_km": 500.21239131897437,
        "timestamp": "2025-12-21T16:47:54.385365+00:00",
        "meta_object_name": "WORLDVIEW-1 (WV-1)",
        "meta_object_id": "2007-041A",
        "meta_epoch": "2025-12-21T07:35:45.212064",
        "meta_mean_motion": 15.23889862,
        "meta_eccentricity": 0.0003441,
        "meta_inclination": 97.3826,
        "meta_ra_of_asc_node": 112.6749,
        "meta_arg_of_pericenter": 8.1676,
        "meta_mean_anomaly": 351.9617,
        "meta_ephemeris_type": 0,
        "meta_classification_type": "U",
        "meta_norad_cat_id": 32060,
        "meta_element_set_no": 999,
        "meta_rev_at_epoch": 1578,
        "meta_bstar": 0.00024181,
        "meta_mean_motion_dot": 5.768e-05,
        "meta_mean_motion_ddot": 0,
        "tle_line1": "1 32060U 07041A   25355.31649551  .00005768  00000+0  24181-3 0  9991",
        "tle_line2": "2 32060  97.3826 112.6749 0003441   8.1676 351.9617 15.23889862 15783"
      },
      "geometry": {
        "type": "Point",
        "coordinates": [
          124.58143865079487,
          -57.027211426031805
        ]
      }
    },
    {
      "type": "Feature",
      "properties": {
        "norad_id": 32289,
        "name": "YAOGAN-3",
        "group": "resource",
        "lat": 78.8926919702445,
        "lon": -113.21640283857477,
        "alt_km": 590.2266066139,
        "timestamp": "2025-12-21T16:47:54.385376+00:00",
        "meta_object_name": "YAOGAN-3",
        "meta_object_id": "2007-055A",
        "meta_epoch": "2025-12-21T13:08:13.718400",
        "meta_mean_motion": 14.89894702,
        "meta_eccentricity": 0.0001094,
        "meta_inclination": 97.8352,
        "meta_ra_of_asc_node": 22.0929,
        "meta_arg_of_pericenter": 74.3042,
        "meta_mean_anomaly": 285.8296,
        "meta_ephemeris_type": 0,
        "meta_classification_type": "U",
        "meta_norad_cat_id": 32289,
        "meta_element_set_no": 999,
        "meta_rev_at_epoch": 97940,
        "meta_bstar": 0.00016538,
        "meta_mean_motion_dot": 1.535e-05,
        "meta_mean_motion_ddot": 0,
        "tle_line1": "1 32289U 07055A   25355.54738100  .00001535  00000+0  16538-3 0  9998",
        "tle_line2": "2 32289  97.8352  22.0929 0001094  74.3042 285.8296 14.89894702979409"
      },
      "geometry": {
        "type": "Point",
        "coordinates": [
          -113.21640283857477,
          78.8926919702445
        ]
      }
    }
  ]
}